NORAD_CAT_ID,OBJECT_NAME,OBJECT_TYPE,EPOCH,MEAN_MOTION,ECCENTRICITY,INCLINATION,RA_OF_ASC_NODE,ARG_OF_PERICENTER,MEAN_ANOMALY,BSTAR,MEAN_MOTION_DOT,MEAN_MOTION_DDOT,TLE_LINE0,TLE_LINE1,TLE_LINE2,SEMIMAJOR_AXIS,PERIOD,APOGEE,PERIGEE,DECAYED
51747.0,STARLINK-3446,PAYLOAD,2022-12-30 11:02:07,15.08854819,0.0002836999999999,53.2143,150.0487,32.2792,327.8374,0.00025529,3.779e-05,0.0,0 STARLINK-3446,1 51747U 22016AK  22364.45980552  .00003779  00000-0  25529-3 0  9992,2 51747  53.2143 150.0487 0002837  32.2792 327.8374 15.08854819 48784,6917.835,95.437,541.663,537.738,0.0
51747.0,STARLINK-3446,PAYLOAD,2022-12-31 02:55:58,15.08852663,0.0002757,53.214,147.075,32.3448,327.7713,0.00027768,4.135e-05,0.0,0 STARLINK-3446,1 51747U 22016AK  22365.12220466  .00004135  00000-0  27768-3 0  9992,2 51747  53.2140 147.0750 0002757  32.3448 327.7713 15.08852663 48882,6917.842,95.437,541.614,537.799,0.0
51747.0,STARLINK-3446,PAYLOAD,2022-12-31 09:17:30,15.08855652,0.0002771,53.214,145.8854,32.6377,327.4786,0.00028685,4.282e-05,0.0,0 STARLINK-3446,1 51747U 22016AK  22365.38716171  .00004282  00000-0  28685-3 0  9995,2 51747  53.2140 145.8854 0002771  32.6377 327.4786 15.08855652 47790,6917.833000000001,95.437,541.614,537.781,0.0
51747.0,STARLINK-3446,PAYLOAD,2022-12-31 18:49:49,15.0885043,0.0002683,53.2145,144.0999,32.4367,327.6790000000001,0.00013112,1.8e-05,0.0,0 STARLINK-3446,1 51747U 22016AK  22365.78460085  .00001800  00000-0  13112-3 0  9991,2 51747  53.2145 144.0999 0002683  32.4367 327.6790 15.08850430 47858,6917.849,95.437,541.57,537.857,0.0
51747.0,STARLINK-3446,PAYLOAD,2023-01-01 02:46:45,15.088400199999995,0.0002786,53.2142,142.6136,32.2403,327.8759,-7.1038e-05,-1.419e-05,0.0,0 STARLINK-3446,1 51747U 22016AK  23001.11580486 -.00001419  00000-0 -71038-4 0  9994,2 51747  53.2142 142.6136 0002786  32.2403 327.8759 15.08840020 49038,6917.88,95.438,541.673,537.818,0.0
51747.0,STARLINK-3446,PAYLOAD,2023-01-01 09:08:18,15.08836709,0.0002701,53.2132,141.4243,34.8064,325.3105,-7.7414e-05,-1.52e-05,0.0,0 STARLINK-3446,1 51747U 22016AK  23001.38076874 -.00001520  00000-0 -77414-4 0  9991,2 51747  53.2132 141.4243 0002701  34.8064 325.3105 15.08836709 47946,6917.89,95.438,541.624,537.887,0.0
51747.0,STARLINK-3446,PAYLOAD,2023-01-01 15:29:51,15.08832858,0.0002871,53.2144,140.235,36.9091,323.2098,-0.00014535,-2.601e-05,0.0,0 STARLINK-3446,1 51747U 22016AK  23001.64573233 -.00002601  00000-0 -14535-3 0  9996,2 51747  53.2144 140.2350 0002871  36.9091 323.2098 15.08832858 49116,6917.901999999999,95.438,541.753,537.781,0.0
51747.0,STARLINK-3446,PAYLOAD,2023-01-02 15:20:38,15.08835375,0.0002751,53.215,135.774,27.4731,332.6407,4.4362e-05,4.18e-06,0.0,0 STARLINK-3446,1 51747U 22016AK  23002.63933396  .00000418  00000-0  44362-4 0  9990,2 51747  53.2150 135.7740 0002751  27.4731 332.6407 15.08835375 48134,6917.895,95.438,541.663,537.856,0.0
51747.0,STARLINK-3446,PAYLOAD,2023-01-02 18:31:24,15.08833576,0.0002833,53.215,135.1793,29.0788,331.0361,5.626e-05,6.07e-06,0.0,0 STARLINK-3446,1 51747U 22016AK  23002.77181623  .00000607  00000-0  56260-4 0  9993,2 51747  53.2150 135.1793 0002833  29.0788 331.0361 15.08833576 49287,6917.9,95.438,541.725,537.805,0.0
51747.0,STARLINK-3446,PAYLOAD,2023-01-03 10:25:16,15.08834082,0.0002901,53.2145,132.2068,28.7562,331.3590000000001,0.00022081,3.227e-05,0.0,0 STARLINK-3446,1 51747U 22016AK  23003.43422008  .00003227  00000-0  22081-3 0  9996,2 51747  53.2145 132.2068 0002901  28.7562 331.3590 15.08834082 48252,6917.898,95.438,541.77,537.757,0.0
51747.0,STARLINK-3446,PAYLOAD,2023-01-04 08:40:40,15.08844679,0.0002976999999999,53.2147,128.0437,27.5259,332.589,0.00022218,3.2500000000000004e-05,0.0,0 STARLINK-3446,1 51747U 22016AK  23004.36157629  .00003250  00000-0  22218-3 0  9991,2 51747  53.2147 128.0437 0002977  27.5259 332.5890 15.08844679 48394,6917.866,95.437,541.7909999999998,537.672,0.0
51747.0,STARLINK-3446,PAYLOAD,2023-01-04 11:51:26,15.08843564,0.0002965,53.2147,127.4491,25.7831,334.3308,0.00022535,3.3e-05,0.0,0 STARLINK-3446,1 51747U 22016AK  23004.49405648  .00003300  00000-0  22535-3 0  9990,2 51747  53.2147 127.4491 0002965  25.7831 334.3308 15.08843564 49544,6917.869000000002,95.437,541.786,537.683,0.0
51747.0,STARLINK-3446,PAYLOAD,2023-01-04 13:26:49,15.08843912,0.0002972,53.2147,127.1517,26.0077,334.1064,0.00021552,3.144e-05,0.0,0 STARLINK-3446,1 51747U 22016AK  23004.56029616  .00003144  00000-0  21552-3 0  9999,2 51747  53.2147 127.1517 0002972  26.0077 334.1064 15.08843912 48424,6917.868,95.437,541.789,537.677,0.0
51747.0,STARLINK-3446,PAYLOAD,2023-01-05 08:31:28,15.08825008,0.0002765,53.2156,123.5843,34.9766,325.1407,-6.2996e-05,-1.291e-05,0.0,0 STARLINK-3446,1 51747U 22016AK  23005.35518782 -.00001291  00000-0 -62996-4 0  9995,2 51747  53.2156 123.5843 0002765  34.9766 325.1407 15.08825008 49674,6917.926,95.439,541.7040000000002,537.878,0.0
51747.0,STARLINK-3446,PAYLOAD,2023-01-05 18:03:47,15.08826993,0.0002993,53.2154,121.7993,33.5024,326.6157,-8.2477e-05,-1.601e-05,0.0,0 STARLINK-3446,1 51747U 22016AK  23005.75262965 -.00001601  00000-0 -82477-4 0  9999,2 51747  53.2154 121.7993 0002993  33.5024 326.6157 15.08826993 48607,6917.92,95.438,541.856,537.715,0.0
51747.0,STARLINK-3446,PAYLOAD,2023-01-06 08:22:15,15.08841648,0.0002723,53.2161,119.1231,42.1325,317.9876,-0.00016386,-2.896e-05,0.0,0 STARLINK-3446,1 51747U 22016AK  23006.34878516 -.00002896  00000-0 -16386-3 0  9992,2 51747  53.2161 119.1231 0002723  42.1325 317.9876 15.08841648 49822,6917.875,95.437,541.624,537.857,0.0
51747.0,STARLINK-3446,PAYLOAD,2023-01-06 16:19:11,15.08835614,0.0002733,53.2155,117.6362,33.5514,326.565,0.00016795,2.385e-05,0.0,0 STARLINK-3446,1 51747U 22016AK  23006.67999065  .00002385  00000-0  16795-3 0  9996,2 51747  53.2155 117.6362 0002733  33.5514 326.5650 15.08835614 49875,6917.894,95.438,541.649,537.868,0.0
51747.0,STARLINK-3446,PAYLOAD,2023-01-07 06:37:40,15.08819773,0.0002596,53.2151,114.96,35.3237,324.7927,3.9812e-05,3.45e-06,0.0,0 STARLINK-3446,1 51747U 22016AK  23007.27616110  .00000345  00000-0  39812-4 0  9990,2 51747  53.2151 114.9600 0002596  35.3237 324.7927 15.08819773 48835,6917.941999999999,95.439,541.6030000000002,538.011,0.0
51747.0,STARLINK-3446,PAYLOAD,2023-01-07 09:48:26,15.08824472,0.000265,53.2149,114.3651,34.0453,326.0709,0.00011874,1.601e-05,0.0,0 STARLINK-3446,1 51747U 22016AK  23007.40864040  .00001601  00000-0  11874-3 0  9995,2 51747  53.2149 114.3651 0002650  34.0453 326.0709 15.08824472 49981,6917.928000000001,95.439,541.626,537.96,0.0
51747.0,STARLINK-3446,PAYLOAD,2023-01-07 16:09:58,15.08835711,0.0002669,53.215,113.1756,35.556,324.5609,0.00017438,2.488e-05,0.0,0 STARLINK-3446,1 51747U 22016AK  23007.67359720  .00002488  00000-0  17438-3 0  9994,2 51747  53.2150 113.1756 0002669  35.5560 324.5609 15.08835711 50028,6917.893,95.438,541.605,537.9119999999998,0.0
51747.0,STARLINK-3446,PAYLOAD,2023-01-08 12:49:59,15.08843347,0.0002535,53.2145,109.3093,40.0484,320.0694,0.00036124,5.466e-05,0.0,0 STARLINK-3446,1 51747U 22016AK  23008.53471877  .00005466  00000-0  36124-3 0  9990,2 51747  53.2145 109.3093 0002535  40.0484 320.0694 15.08843347 49028,6917.87,95.437,541.489,537.981,0.0
51747.0,STARLINK-3446,PAYLOAD,2023-01-08 16:00:45,15.088497699999998,0.0002583999999999,53.2143,108.7144,41.1976,318.9211,0.00053617,8.258e-05,0.0,0 STARLINK-3446,1 51747U 22016AK  23008.66719769  .00008258  00000-0  53617-3 0  9997,2 51747  53.2143 108.7144 0002584  41.1976 318.9211 15.08849770 49047,6917.851,95.437,541.503,537.928,0.0
51747.0,STARLINK-3446,PAYLOAD,2023-01-09 04:43:51,15.08839406,0.0002496,53.214,106.3353,45.8619,314.2578,0.00020785,3.021e-05,0.0,0 STARLINK-3446,1 51747U 22016AK  23009.19712079  .00003021  00000-0  20785-3 0  9996,2 51747  53.2140 106.3353 0002496  45.8619 314.2578 15.08839406 50252,6917.882,95.438,541.474,538.021,0.0
51747.0,STARLINK-3446,PAYLOAD,2023-01-09 12:40:46,15.08845461,0.0002346,53.2152,104.849,44.63,315.4881,0.00033336,5.022e-05,0.0,0 STARLINK-3446,1 51747U 22016AK  23009.52831769  .00005022  00000-0  33336-3 0  9990,2 51747  53.2152 104.8490 0002346  44.6300 315.4881 15.08845461 49175,6917.864000000001,95.437,541.352,538.106,0.0
51747.0,STARLINK-3446,PAYLOAD,2023-01-10 09:20:47,15.08839511,0.0002341,53.2149,100.9836,48.5909,311.5284,5.994e-05,6.66e-06,0.0,0 STARLINK-3446,1 51747U 22016AK  23010.38944023  .00000666  00000-0  59940-4 0  9993,2 51747  53.2149 100.9836 0002341  48.5909 311.5284 15.08839511 50439,6917.882,95.438,541.366,538.127,0.0
51747.0,STARLINK-3446,PAYLOAD,2023-01-10 12:31:33,15.08841063,0.0002313,53.215,100.3888,48.5703,311.5487,7.277399999999999e-05,8.7e-06,0.0,0 STARLINK-3446,1 51747U 22016AK  23010.52191904  .00000870  00000-0  72774-4 0  9998,2 51747  53.2150 100.3888 0002313  48.5703 311.5487 15.08841063 49329,6917.877,95.437,541.342,538.1419999999998,0.0
51747.0,STARLINK-3446,PAYLOAD,2023-01-11 12:22:20,15.08844314,0.0002177,53.2161,95.9284,49.5853,310.5328,0.00011382,1.524e-05,0.0,0 STARLINK-3446,1 51747U 22016AK  23011.51551763  .00001524  00000-0  11382-3 0  9995,2 51747  53.2161  95.9284 0002177  49.5853 310.5328 15.08844314 50603,6917.866999999998,95.437,541.238,538.226,0.0
51747.0,STARLINK-3446,PAYLOAD,2023-01-11 21:54:39,15.08837799,0.0002054,53.2159,94.1443,41.6084,318.5064,7.2732e-05,8.69e-06,0.0,0 STARLINK-3446,1 51747U 22016AK  23011.91296181  .00000869  00000-0  72732-4 0  9997,2 51747  53.2159  94.1443 0002054  41.6084 318.5064 15.08837799 49535,6917.887,95.438,541.173,538.331,0.0
51747.0,STARLINK-3446,PAYLOAD,2023-01-12 21:45:26,15.08840712,0.0001937,53.2161,89.6849,54.2141,305.903,8.986799999999999e-05,1.142e-05,0.0,0 STARLINK-3446,1 51747U 22016AK  23012.90656009  .00001142  00000-0  89868-4 0  9999,2 51747  53.2161  89.6849 0001937  54.2141 305.9030 15.08840712 49688,6917.8780000000015,95.438,541.0830000000002,538.403,0.0
